[{"OBJECT_NAME":"DONGPO 08","OBJECT_ID":"2022-167E","EPOCH":"2026-03-09T22:57:52.742880","MEAN_MOTION":15.31542505,"ECCENTRICITY":0.00092155,"INCLINATION":97.6764,"RA_OF_ASC_NODE":233.3854,"ARG_OF_PERICENTER":153.9158,"MEAN_ANOMALY":206.2548,"EPHEMERIS_TYPE":0,"CLASSIFICATION_TYPE":"U","NORAD_CAT_ID":54686,"ELEMENT_SET_NO":999,"REV_AT_EPOCH":18012,"BSTAR":0.0004734784,"MEAN_MOTION_DOT":0.0001437,"MEAN_MOTION_DDOT":0},{"OBJECT_NAME":"STARLINK-35703","OBJECT_ID":"2025-288M","EPOCH":"2026-03-09T21:45:33.553440","MEAN_MOTION":15.27576944,"ECCENTRICITY":9.132e-5,"INCLINATION":43.0021,"RA_OF_ASC_NODE":21.9578,"ARG_OF_PERICENTER":252.3187,"MEAN_ANOMALY":107.7565,"EPHEMERIS_TYPE":0,"CLASSIFICATION_TYPE":"U","NORAD_CAT_ID":66970,"ELEMENT_SET_NO":999,"REV_AT_EPOCH":1532,"BSTAR":0.0011982565,"MEAN_MOTION_DOT":0.00032855,"MEAN_MOTION_DDOT":0}]
